ISS (ZARYA)             
1 25544U 98067A   25323.19007697  .00014207  00000+0  25812-3 0  9998
2 25544  51.6333 259.0348 0004154  86.2580 273.8884 15.49812972539204
CSS (TIANHE)            
1 48274U 21035A   25323.26489225  .00021329  00000+0  26652-3 0  9999
2 48274  41.4654 159.1344 0007259 194.9297 165.1328 15.59300306260367
ISS (NAUKA)             
1 49044U 21066A   25323.19007697  .00014207  00000+0  25812-3 0  9994
2 49044  51.6333 259.0348 0004154  86.2580 273.8884 15.49812972230449
FREGAT DEB              
1 49271U 11037PF  25321.55102087  .00011346  00000+0  24565-1 0  9993
2 49271  51.6212 273.9257 0877270 169.5316 192.5188 12.34114161198825
CSS (WENTIAN)           
1 53239U 22085A   25323.26489225  .00021329  00000+0  26652-3 0  9992
2 53239  41.4654 159.1344 0007259 194.9297 165.1328 15.59300306173840
CSS (MENGTIAN)          
1 54216U 22143A   25323.26489225  .00021329  00000+0  26652-3 0  9993
2 54216  41.4654 159.1344 0007259 194.9297 165.1328 15.59300306158647
SOYUZ-MS 27             
1 63520U 25072A   25323.19007697  .00014207  00000+0  25812-3 0  9990
2 63520  51.6333 259.0348 0004154  86.2580 273.8884 15.49812972 20205
SHENZHOU-20 (SZ-20)     
1 63632U 25082A   25323.26489225  .00021329  00000+0  26652-3 0  9990
2 63632  41.4654 159.1344 0007259 194.9297 165.1328 15.59300306255300
PROGRESS-MS 31          
1 64751U 25146A   25323.19007697  .00014207  00000+0  25812-3 0  9999
2 64751  51.6333 259.0348 0004154  86.2580 273.8884 15.49812972  6756
TIANZHOU-9              
1 64786U 25149A   25323.26489225  .00021329  00000+0  26652-3 0  9995
2 64786  41.4654 159.1344 0007259 194.9297 165.1328 15.59300306255301
CREW DRAGON 11          
1 65077U 25166A   25323.19007697  .00014207  00000+0  25812-3 0  9993
2 65077  51.6333 259.0348 0004154  86.2580 273.8884 15.49812972  2147
DRAGON CRS-33           
1 65304U 25186A   25323.19007697  .00014207  00000+0  25812-3 0  9998
2 65304  51.6333 259.0348 0004154  86.2580 273.8884 15.49812972   115
