CCSDS_OMM_VERS = 2.0
CREATION_DATE  = 
ORIGINATOR     = 

OBJECT_NAME    = ISS (ZARYA)
OBJECT_ID      = 1998-067A
CENTER_NAME    = EARTH
REF_FRAME      = TEME
TIME_SYSTEM    = UTC
MEAN_ELEMENT_THEORY = SGP/SGP4

EPOCH          = 2025-11-19T04:33:42.650208
MEAN_MOTION    = 15.49812972
ECCENTRICITY   = .00041545
INCLINATION    = 51.6333
RA_OF_ASC_NODE = 259.0348
ARG_OF_PERICENTER = 86.2580
MEAN_ANOMALY   = 273.8884

EPHEMERIS_TYPE = 0
CLASSIFICATION_TYPE = U
NORAD_CAT_ID   = 25544
ELEMENT_SET_NO = 999
REV_AT_EPOCH   = 53920
BSTAR          = .25811767E-3
MEAN_MOTION_DOT = .14207E-3
MEAN_MOTION_DDOT = 0

CCSDS_OMM_VERS = 2.0
CREATION_DATE  = 
ORIGINATOR     = 

OBJECT_NAME    = CSS (TIANHE)
OBJECT_ID      = 2021-035A
CENTER_NAME    = EARTH
REF_FRAME      = TEME
TIME_SYSTEM    = UTC
MEAN_ELEMENT_THEORY = SGP/SGP4

EPOCH          = 2025-11-19T06:21:26.690400
MEAN_MOTION    = 15.59300306
ECCENTRICITY   = .00072595
INCLINATION    = 41.4654
RA_OF_ASC_NODE = 159.1344
ARG_OF_PERICENTER = 194.9297
MEAN_ANOMALY   = 165.1328

EPHEMERIS_TYPE = 0
CLASSIFICATION_TYPE = U
NORAD_CAT_ID   = 48274
ELEMENT_SET_NO = 999
REV_AT_EPOCH   = 26036
BSTAR          = .26651758E-3
MEAN_MOTION_DOT = .21329E-3
MEAN_MOTION_DDOT = 0

CCSDS_OMM_VERS = 2.0
CREATION_DATE  = 
ORIGINATOR     = 

OBJECT_NAME    = ISS (NAUKA)
OBJECT_ID      = 2021-066A
CENTER_NAME    = EARTH
REF_FRAME      = TEME
TIME_SYSTEM    = UTC
MEAN_ELEMENT_THEORY = SGP/SGP4

EPOCH          = 2025-11-19T04:33:42.650208
MEAN_MOTION    = 15.49812972
ECCENTRICITY   = .00041545
INCLINATION    = 51.6333
RA_OF_ASC_NODE = 259.0348
ARG_OF_PERICENTER = 86.2580
MEAN_ANOMALY   = 273.8884

EPHEMERIS_TYPE = 0
CLASSIFICATION_TYPE = U
NORAD_CAT_ID   = 49044
ELEMENT_SET_NO = 999
REV_AT_EPOCH   = 23044
BSTAR          = .25811767E-3
MEAN_MOTION_DOT = .14207E-3
MEAN_MOTION_DDOT = 0

CCSDS_OMM_VERS = 2.0
CREATION_DATE  = 
ORIGINATOR     = 

OBJECT_NAME    = FREGAT DEB
OBJECT_ID      = 2011-037PF
CENTER_NAME    = EARTH
REF_FRAME      = TEME
TIME_SYSTEM    = UTC
MEAN_ELEMENT_THEORY = SGP/SGP4

EPOCH          = 2025-11-17T13:13:28.203168
MEAN_MOTION    = 12.34114161
ECCENTRICITY   = .087727
INCLINATION    = 51.6212
RA_OF_ASC_NODE = 273.9257
ARG_OF_PERICENTER = 169.5316
MEAN_ANOMALY   = 192.5188

EPHEMERIS_TYPE = 0
CLASSIFICATION_TYPE = U
NORAD_CAT_ID   = 49271
ELEMENT_SET_NO = 999
REV_AT_EPOCH   = 19882
BSTAR          = .24564836E-1
MEAN_MOTION_DOT = .11346E-3
MEAN_MOTION_DDOT = 0

CCSDS_OMM_VERS = 2.0
CREATION_DATE  = 
ORIGINATOR     = 

OBJECT_NAME    = CSS (WENTIAN)
OBJECT_ID      = 2022-085A
CENTER_NAME    = EARTH
REF_FRAME      = TEME
TIME_SYSTEM    = UTC
MEAN_ELEMENT_THEORY = SGP/SGP4

EPOCH          = 2025-11-19T06:21:26.690400
MEAN_MOTION    = 15.59300306
ECCENTRICITY   = .00072595
INCLINATION    = 41.4654
RA_OF_ASC_NODE = 159.1344
ARG_OF_PERICENTER = 194.9297
MEAN_ANOMALY   = 165.1328

EPHEMERIS_TYPE = 0
CLASSIFICATION_TYPE = U
NORAD_CAT_ID   = 53239
ELEMENT_SET_NO = 999
REV_AT_EPOCH   = 17384
BSTAR          = .26651758E-3
MEAN_MOTION_DOT = .21329E-3
MEAN_MOTION_DDOT = 0

CCSDS_OMM_VERS = 2.0
CREATION_DATE  = 
ORIGINATOR     = 

OBJECT_NAME    = CSS (MENGTIAN)
OBJECT_ID      = 2022-143A
CENTER_NAME    = EARTH
REF_FRAME      = TEME
TIME_SYSTEM    = UTC
MEAN_ELEMENT_THEORY = SGP/SGP4

EPOCH          = 2025-11-19T06:21:26.690400
MEAN_MOTION    = 15.59300306
ECCENTRICITY   = .00072595
INCLINATION    = 41.4654
RA_OF_ASC_NODE = 159.1344
ARG_OF_PERICENTER = 194.9297
MEAN_ANOMALY   = 165.1328

EPHEMERIS_TYPE = 0
CLASSIFICATION_TYPE = U
NORAD_CAT_ID   = 54216
ELEMENT_SET_NO = 999
REV_AT_EPOCH   = 15864
BSTAR          = .26651758E-3
MEAN_MOTION_DOT = .21329E-3
MEAN_MOTION_DDOT = 0

CCSDS_OMM_VERS = 2.0
CREATION_DATE  = 
ORIGINATOR     = 

OBJECT_NAME    = SOYUZ-MS 27
OBJECT_ID      = 2025-072A
CENTER_NAME    = EARTH
REF_FRAME      = TEME
TIME_SYSTEM    = UTC
MEAN_ELEMENT_THEORY = SGP/SGP4

EPOCH          = 2025-11-19T04:33:42.650208
MEAN_MOTION    = 15.49812972
ECCENTRICITY   = .00041545
INCLINATION    = 51.6333
RA_OF_ASC_NODE = 259.0348
ARG_OF_PERICENTER = 86.2580
MEAN_ANOMALY   = 273.8884

EPHEMERIS_TYPE = 0
CLASSIFICATION_TYPE = U
NORAD_CAT_ID   = 63520
ELEMENT_SET_NO = 999
REV_AT_EPOCH   = 2020
BSTAR          = .25811767E-3
MEAN_MOTION_DOT = .14207E-3
MEAN_MOTION_DDOT = 0

CCSDS_OMM_VERS = 2.0
CREATION_DATE  = 
ORIGINATOR     = 

OBJECT_NAME    = SHENZHOU-20 (SZ-20)
OBJECT_ID      = 2025-082A
CENTER_NAME    = EARTH
REF_FRAME      = TEME
TIME_SYSTEM    = UTC
MEAN_ELEMENT_THEORY = SGP/SGP4

EPOCH          = 2025-11-19T06:21:26.690400
MEAN_MOTION    = 15.59300306
ECCENTRICITY   = .00072595
INCLINATION    = 41.4654
RA_OF_ASC_NODE = 159.1344
ARG_OF_PERICENTER = 194.9297
MEAN_ANOMALY   = 165.1328

EPHEMERIS_TYPE = 0
CLASSIFICATION_TYPE = U
NORAD_CAT_ID   = 63632
ELEMENT_SET_NO = 999
REV_AT_EPOCH   = 25530
BSTAR          = .26651758E-3
MEAN_MOTION_DOT = .21329E-3
MEAN_MOTION_DDOT = 0

CCSDS_OMM_VERS = 2.0
CREATION_DATE  = 
ORIGINATOR     = 

OBJECT_NAME    = PROGRESS-MS 31
OBJECT_ID      = 2025-146A
CENTER_NAME    = EARTH
REF_FRAME      = TEME
TIME_SYSTEM    = UTC
MEAN_ELEMENT_THEORY = SGP/SGP4

EPOCH          = 2025-11-19T04:33:42.650208
MEAN_MOTION    = 15.49812972
ECCENTRICITY   = .00041545
INCLINATION    = 51.6333
RA_OF_ASC_NODE = 259.0348
ARG_OF_PERICENTER = 86.2580
MEAN_ANOMALY   = 273.8884

EPHEMERIS_TYPE = 0
CLASSIFICATION_TYPE = U
NORAD_CAT_ID   = 64751
ELEMENT_SET_NO = 999
REV_AT_EPOCH   = 675
BSTAR          = .25811767E-3
MEAN_MOTION_DOT = .14207E-3
MEAN_MOTION_DDOT = 0

CCSDS_OMM_VERS = 2.0
CREATION_DATE  = 
ORIGINATOR     = 

OBJECT_NAME    = TIANZHOU-9
OBJECT_ID      = 2025-149A
CENTER_NAME    = EARTH
REF_FRAME      = TEME
TIME_SYSTEM    = UTC
MEAN_ELEMENT_THEORY = SGP/SGP4

EPOCH          = 2025-11-19T06:21:26.690400
MEAN_MOTION    = 15.59300306
ECCENTRICITY   = .00072595
INCLINATION    = 41.4654
RA_OF_ASC_NODE = 159.1344
ARG_OF_PERICENTER = 194.9297
MEAN_ANOMALY   = 165.1328

EPHEMERIS_TYPE = 0
CLASSIFICATION_TYPE = U
NORAD_CAT_ID   = 64786
ELEMENT_SET_NO = 999
REV_AT_EPOCH   = 25530
BSTAR          = .26651758E-3
MEAN_MOTION_DOT = .21329E-3
MEAN_MOTION_DDOT = 0

CCSDS_OMM_VERS = 2.0
CREATION_DATE  = 
ORIGINATOR     = 

OBJECT_NAME    = CREW DRAGON 11
OBJECT_ID      = 2025-166A
CENTER_NAME    = EARTH
REF_FRAME      = TEME
TIME_SYSTEM    = UTC
MEAN_ELEMENT_THEORY = SGP/SGP4

EPOCH          = 2025-11-19T04:33:42.650208
MEAN_MOTION    = 15.49812972
ECCENTRICITY   = .00041545
INCLINATION    = 51.6333
RA_OF_ASC_NODE = 259.0348
ARG_OF_PERICENTER = 86.2580
MEAN_ANOMALY   = 273.8884

EPHEMERIS_TYPE = 0
CLASSIFICATION_TYPE = U
NORAD_CAT_ID   = 65077
ELEMENT_SET_NO = 999
REV_AT_EPOCH   = 214
BSTAR          = .25811767E-3
MEAN_MOTION_DOT = .14207E-3
MEAN_MOTION_DDOT = 0

CCSDS_OMM_VERS = 2.0
CREATION_DATE  = 
ORIGINATOR     = 

OBJECT_NAME    = DRAGON CRS-33
OBJECT_ID      = 2025-186A
CENTER_NAME    = EARTH
REF_FRAME      = TEME
TIME_SYSTEM    = UTC
MEAN_ELEMENT_THEORY = SGP/SGP4

EPOCH          = 2025-11-19T04:33:42.650208
MEAN_MOTION    = 15.49812972
ECCENTRICITY   = .00041545
INCLINATION    = 51.6333
RA_OF_ASC_NODE = 259.0348
ARG_OF_PERICENTER = 86.2580
MEAN_ANOMALY   = 273.8884

EPHEMERIS_TYPE = 0
CLASSIFICATION_TYPE = U
NORAD_CAT_ID   = 65304
ELEMENT_SET_NO = 999
REV_AT_EPOCH   = 11
BSTAR          = .25811767E-3
MEAN_MOTION_DOT = .14207E-3
MEAN_MOTION_DDOT = 0

